COMMENT,ORIGINATOR,NORAD_CAT_ID,OBJECT_NAME,OBJECT_TYPE,CLASSIFICATION_TYPE,INTLDES,EPOCH,EPOCH_MICROSECONDS,MEAN_MOTION,ECCENTRICITY,INCLINATION,RA_OF_ASC_NODE,ARG_OF_PERICENTER,MEAN_ANOMALY,EPHEMERIS_TYPE,ELEMENT_SET_NO,REV_AT_EPOCH,BSTAR,MEAN_MOTION_DOT,MEAN_MOTION_DDOT,FILE,TLE_LINE0,TLE_LINE1,TLE_LINE2,OBJECT_ID,OBJECT_NUMBER,SEMIMAJOR_AXIS,PERIOD,APOGEE,PERIGEE,DECAYED
"GENERATED VIA SPACETRACK.ORG API","18 SPCS","48890","SPACEBEE-104","PAYLOAD","U","21059M","2021-07-28 14:00:57","763296","15.11974197","0.001067","97.517","337.9211","132.6624","227.5508","0","999","495","0.000016902","0.00000226","0","3085005","0 SPACEBEE-104","1 48890U 21059M   21209.58400189  .00000226  00000-0  16902-4 0  9997","2 48890  97.5170 337.9211 0010670 132.6624 227.5508 15.11974197  4956","2021-059M","48890","6908.317","95.240","537.553","522.811","0"
"GENERATED VIA SPACETRACK.ORG API","18 SPCS","48890","SPACEBEE-104","PAYLOAD","U","21059M","2021-07-29 07:29:16","13760","15.11972841","0.0010752","97.5167","338.6374","129.9814","230.2362","0","999","506","0.000013998","0.00000176","0","3085337","0 SPACEBEE-104","1 48890U 21059M   21210.31199090  .00000176  00000-0  13998-4 0  9992","2 48890  97.5167 338.6374 0010752 129.9814 230.2362 15.11972841  5067","2021-059M","48890","6908.321","95.240","537.614","522.758","0"
"GENERATED VIA SPACETRACK.ORG API","18 SPCS","48890","SPACEBEE-104","PAYLOAD","U","21059M","2021-07-29 07:29:16","13760","15.11972841","0.0010752","97.5167","338.6374","129.9814","230.2362","0","999","506","0.000013998","0.00000176","0","3085488","0 SPACEBEE-104","1 48890U 21059M   21210.31199090  .00000176  00000-0  13998-4 0  9992","2 48890  97.5167 338.6374 0010752 129.9814 230.2362 15.11972841  5067","2021-059M","48890","6908.321","95.240","537.614","522.758","0"
"GENERATED VIA SPACETRACK.ORG API","18 SPCS","48890","SPACEBEE-104","PAYLOAD","U","21059M","2021-07-29 20:11:40","96320","15.11973172","0.0010806","97.5168","339.1582","128.5114","231.7087","0","999","514","0.000018483","0.00000253","0","3085670","0 SPACEBEE-104","1 48890U 21059M   21210.84143630  .00000253  00000-0  18483-4 0  9999","2 48890  97.5168 339.1582 0010806 128.5114 231.7087 15.11973172  5140","2021-059M","48890","6908.320","95.240","537.650","522.720","0"
"GENERATED VIA SPACETRACK.ORG API","18 SPCS","48890","SPACEBEE-104","PAYLOAD","U","21059M","2021-07-30 07:18:46","164672","15.11973239","0.0010829","97.5167","339.614","127.201","233.021","0","999","521","0.000016105","0.00000212","0","3085948","0 SPACEBEE-104","1 48890U 21059M   21211.30470098  .00000212  00000-0  16105-4 0  9996","2 48890  97.5167 339.6140 0010829 127.2010 233.0210 15.11973239  5215","2021-059M","48890","6908.320","95.240","537.666","522.704","0"
"GENERATED VIA SPACETRACK.ORG API","18 SPCS","48890","SPACEBEE-104","PAYLOAD","U","21059M","2021-07-30 18:25:52","237344","15.11973096","0.0010854","97.5168","340.0698","125.8664","234.3576","0","999","528","0.0000099787","0.00000107","0","3086098","0 SPACEBEE-104","1 48890U 21059M   21211.76796571  .00000107  00000-0  99787-5 0  9994","2 48890  97.5168 340.0698 0010854 125.8664 234.3576 15.11973096  5284","2021-059M","48890","6908.320","95.240","537.684","522.687","0"
"GENERATED VIA SPACETRACK.ORG API","18 SPCS","48890","SPACEBEE-104","PAYLOAD","U","21059M","2021-07-30 21:36:28","261440","15.11972966","0.0010868","97.5168","340.2001","125.5082","234.7163","0","999","530","0.0000072846","0.00000061","0","3086384","0 SPACEBEE-104","1 48890U 21059M   21211.90032710  .00000061  00000-0  72846-5 0  9994","2 48890  97.5168 340.2001 0010868 125.5082 234.7163 15.11972966  5304","2021-059M","48890","6908.321","95.240","537.694","522.678","0"
"GENERATED VIA SPACETRACK.ORG API","18 SPCS","48890","SPACEBEE-104","PAYLOAD","U","21059M","2021-07-31 07:08:16","339776","15.11972723","0.0010858","97.5168","340.5909","124.0772","236.1491","0","999","536","0.0000034289","-0.00000005","0","3086827","0 SPACEBEE-104","1 48890U 21059M   21212.29741134 -.00000005  00000-0  34289-5 0  9992","2 48890  97.5168 340.5909 0010858 124.0772 236.1491 15.11972723  5360","2021-059M","48890","6908.321","95.240","537.688","522.685","0"
"GENERATED VIA SPACETRACK.ORG API","18 SPCS","48890","SPACEBEE-104","PAYLOAD","U","21059M","2021-07-31 18:15:22","414176","15.11972711","0.0010873","97.5168","341.0468","122.5131","237.7152","0","999","543","0.000002815","-0.00000016","0","3087042","0 SPACEBEE-104","1 48890U 21059M   21212.76067609 -.00000016  00000-0  28150-5 0  9994","2 48890  97.5168 341.0468 0010873 122.5131 237.7152 15.11972711  5431","2021-059M","48890","6908.321","95.240","537.698","522.675","0"
"GENERATED VIA SPACETRACK.ORG API","18 SPCS","48890","SPACEBEE-104","PAYLOAD","U","21059M","2021-08-01 02:11:52","485216","15.11972045","0.0010888","97.5169","341.3723","121.7772","238.4521","0","999","548","-0.0000069271","-0.00000183","0","3087131","0 SPACEBEE-104","1 48890U 21059M   21213.09157969 -.00000183  00000-0 -69271-5 0  9995","2 48890  97.5169 341.3723 0010888 121.7772 238.4521 15.11972045  5480","2021-059M","48890","6908.324","95.240","537.710","522.667","0"
"GENERATED VIA SPACETRACK.ORG API","18 SPCS","48890","SPACEBEE-104","PAYLOAD","U","21059M","2021-08-01 06:57:46","484640","15.11972292","0.0010827","97.517","341.5678","121.3586","238.8705","0","999","551","-0.0000080441","-0.00000202","0","3087492","0 SPACEBEE-104","1 48890U 21059M   21213.29012135 -.00000202  00000-0 -80441-5 0  9996","2 48890  97.5170 341.5678 0010827 121.3586 238.8705 15.11972292  5511","2021-059M","48890","6908.323","95.240","537.667","522.708","0"
"GENERATED VIA SPACETRACK.ORG API","18 SPCS","48890","SPACEBEE-104","PAYLOAD","U","21059M","2021-08-01 19:40:10","646688","15.11971183","0.0010883","97.5172","342.0886","119.4362","240.7956","0","999","559","-0.000026837","-0.00000525","0","3087690","0 SPACEBEE-104","1 48890U 21059M   21213.81956767 -.00000525  00000-0 -26837-4 0  9998","2 48890  97.5172 342.0886 0010883 119.4362 240.7956 15.11971183  5598","2021-059M","48890","6908.326","95.240","537.709","522.673","0"
"GENERATED VIA SPACETRACK.ORG API","18 SPCS","48890","SPACEBEE-104","PAYLOAD","U","21059M","2021-08-02 08:22:34","799232","15.11970752","0.0010912","97.5172","342.6096","117.842","242.3918","0","999","567","-0.000027428","-0.00000535","0","3088060","0 SPACEBEE-104","1 48890U 21059M   21214.34901388 -.00000535  00000-0 -27428-4 0  9994","2 48890  97.5172 342.6096 0010912 117.8420 242.3918 15.11970752  5673","2021-059M","48890","6908.327","95.240","537.731","522.654","0"
"GENERATED VIA SPACETRACK.ORG API","18 SPCS","48890","SPACEBEE-104","PAYLOAD","U","21059M","2021-08-02 08:22:34","799232","15.11970752","0.0010912","97.5172","342.6096","117.842","242.3918","0","999","567","-0.000027428","-0.00000535","0","3088180","0 SPACEBEE-104","1 48890U 21059M   21214.34901388 -.00000535  00000-0 -27428-4 0  9994","2 48890  97.5172 342.6096 0010912 117.8420 242.3918 15.11970752  5673","2021-059M","48890","6908.327","95.240","537.731","522.654","0"
"GENERATED VIA SPACETRACK.ORG API","18 SPCS","48890","SPACEBEE-104","PAYLOAD","U","21059M","2021-08-02 14:43:46","896672","15.11970232","0.0010927","97.5173","342.87","116.9492","243.2856","0","999","571","-0.000029859","-0.00000577","0","3088384","0 SPACEBEE-104","1 48890U 21059M   21214.61373723 -.00000577  00000-0 -29859-4 0  9996","2 48890  97.5173 342.8700 0010927 116.9492 243.2856 15.11970232  5712","2021-059M","48890","6908.329","95.240","537.743","522.645","0"
"GENERATED VIA SPACETRACK.ORG API","18 SPCS","48890","SPACEBEE-104","PAYLOAD","U","21059M","2021-08-03 08:12:05","215392","15.11968867","0.001096","97.5172","343.5865","114.8056","245.4316","0","999","582","-0.000033436","-0.00000638","0","3088807","0 SPACEBEE-104","1 48890U 21059M   21215.34172703 -.00000638  00000-0 -33436-4 0  9996","2 48890  97.5172 343.5865 0010960 114.8056 245.4316 15.11968867  5829","2021-059M","48890","6908.333","95.240","537.770","522.627","0"
"GENERATED VIA SPACETRACK.ORG API","18 SPCS","48890","SPACEBEE-104","PAYLOAD","U","21059M","2021-08-04 08:01:35","679072","15.1196708","0.0010982","97.5174","344.5634","111.7513","248.4888","0","999","597","-0.000038946","-0.00000733","0","3089327","0 SPACEBEE-104","1 48890U 21059M   21216.33444073 -.00000733  00000-0 -38946-4 0  9995","2 48890  97.5174 344.5634 0010982 111.7513 248.4888 15.11967080  5973","2021-059M","48890","6908.339","95.240","537.790","522.617","0"
"GENERATED VIA SPACETRACK.ORG API","18 SPCS","48890","SPACEBEE-104","PAYLOAD","U","21059M","2021-08-04 08:01:35","679072","15.1196708","0.0010982","97.5174","344.5634","111.7513","248.4888","0","999","597","-0.000038946","-0.00000733","0","3089467","0 SPACEBEE-104","1 48890U 21059M   21216.33444073 -.00000733  00000-0 -38946-4 0  9995","2 48890  97.5174 344.5634 0010982 111.7513 248.4888 15.11967080  5973","2021-059M","48890","6908.339","95.240","537.790","522.617","0"
"GENERATED VIA SPACETRACK.ORG API","18 SPCS","48890","SPACEBEE-104","PAYLOAD","U","21059M","2021-08-04 15:58:05","707776","15.11970662","0.0010525","97.5175","344.8899","110.4218","249.8144","0","999","602","-0.000040161","-0.00000753","0","3089704","0 SPACEBEE-104","1 48890U 21059M   21216.66534384 -.00000753  00000-0 -40161-4 0  9990","2 48890  97.5175 344.8899 0010525 110.4218 249.8144 15.11970662  6028","2021-059M","48890","6908.328","95.240","537.464","522.922","0"
"GENERATED VIA SPACETRACK.ORG API","18 SPCS","48890","SPACEBEE-104","PAYLOAD","U","21059M","2021-08-05 07:51:05","946624","15.11968376","0.0011232","97.5173","345.54","108.9797","251.2652","0","999","612","-0.000037256","-0.00000704","0","3090160","0 SPACEBEE-104","1 48890U 21059M   21217.32715216 -.00000704  00000-0 -37256-4 0  9996","2 48890  97.5173 345.5400 0011232 108.9797 251.2652 15.11968376  6123","2021-059M","48890","6908.335","95.240","537.959","522.440","0"
